IRIDIUM 171             
1 43929U 19002H   23363.58929158  .00000369  00000+0  12464-3 0  9990
2 43929  86.3976  10.1602 0002089  90.5676 269.5759 14.34213801259871
IRIDIUM 170             
1 43930U 19002J   23363.52503498  .00001391  00000+0  21680-3 0  9997
2 43930  86.6108  10.0308 0002534  91.2364 268.9143 14.72236340266741
IRIDIUM 167             
1 43931U 19002K   23363.58294941  .00000166  00000+0  52196-4 0  9990
2 43931  86.3967   9.9709 0002087  89.1283 271.0152 14.34212200259871
IRIDIUM 181             
1 56726U 23068S   23363.58831052  .00000491  00000+0  13918-3 0  9992
2 56726  86.8620  55.4169 0001871  71.7881 288.3524 14.43591128 32529
IRIDIUM 177             
1 56727U 23068T   23363.59860759  .00001739  00000+0  22554-3 0  9992
2 56727  86.1970  36.3402 0002206  95.8206 264.3266 14.80191043 33149
IRIDIUM 174             
1 56728U 23068U   23363.59319719  .00001082  00000+0  13895-3 0  9997
2 56728  86.1981  36.4327 0002354 100.3458 259.8028 14.80196705 33149
IRIDIUM 178             
1 56729U 23068V   23363.58775707  .00001904  00000+0  24731-3 0  9994
2 56729  86.5773  45.8108 0002132  91.1550 268.9915 14.80194804 33142
IRIDIUM 179             
1 56730U 23068W   23363.58236214  .00003321  00000+0  43391-3 0  9999
2 56730  86.6781  47.7984 0002104  90.9847 269.1615 14.80196320 33147
